QIANFAN 18P             
1 66046U 25233P   25302.96998119  .00000743  00000+0  30380-3 0  9991
2 66046  88.9942  67.0692 0014886 173.2220 186.9178 14.26259269  1803
QIANFAN 18Q             
1 66047U 25233Q   25302.96985599  .00000871  00000+0  35656-3 0  9993
2 66047  88.9942  67.0691 0015067 173.3222 186.8176 14.26318019  1804
QIANFAN 18R             
1 66048U 25233R   25302.96980836  .00000600  00000+0  24368-3 0  9991
2 66048  88.9943  67.0692 0014950 173.0182 187.1223 14.26301185  1802
QIANFAN 18S             
1 66049U 25233S   25302.96973139  .00000699  00000+0  28465-3 0  9990
2 66049  88.9942  67.0691 0015749 171.1650 188.9824 14.26330131  1806
QIANFAN 18T             
1 66050U 25233T   25302.96950983  .00000712  00000+0  28943-3 0  9991
2 66050  88.9941  67.0690 0015308 171.9479 188.1964 14.26507388  1801
CZ-6A R/B               
1 66051U 25233U   25302.98128914  .00000101  00000+0  17269-4 0  9997
2 66051  89.0280  67.0081 0086132  76.0859 284.9913 14.57006867  1847
2025-234A               
1 66053U 25234A   25304.29079334  .00036267  00000+0  15759-2 0  9999
2 66053  97.4620   9.8638 0014372 243.5847 116.3915 15.22104697  1851
2025-234B               
1 66054U 25234B   25304.29554887  .00009094  00000+0  41085-3 0  9991
2 66054  97.5048   9.9195 0013746 235.7655 124.2279 15.21104848  1858
2025-234C               
1 66055U 25234C   25304.29478751  .00007082  00000+0  31900-3 0  9997
2 66055  97.4572   9.8513 0014423 238.0929 121.8905 15.21281174  1853
2025-234D               
1 66056U 25234D   25304.29418810  .00022734  00000+0  10072-2 0  9995
2 66056  97.4550   9.8489 0014520 236.8911 123.0932 15.21541747  1845
2025-234E               
1 66057U 25234E   25295.15214147  .00007512  00000+0  33848-3 0  9991
2 66057  97.5441   0.7365 0022152 241.6098 118.2904 15.21126112   466
STARLINK-35552          
1 66058U 25235A   25304.06107282 -.00435521  00000+0 -19900-2 0  9994
2 66058  53.1504 132.4648 0001113 355.3734   4.7280 15.84092670  3005
